{
  "type": "FeatureCollection",
  "features": [
    {
      "type": "Feature",
      "properties": {
        "norad_id": 66323,
        "name": "STARLINK-35309",
        "group": "last-30-days",
        "lat": -42.931056760317574,
        "lon": -58.42331509613119,
        "alt_km": 416.97978214984687,
        "timestamp": "2025-12-04T03:47:53.334075+00:00",
        "meta_object_name": "STARLINK-35309",
        "meta_object_id": "2025-253E",
        "meta_epoch": "2025-12-03T11:11:28.271616",
        "meta_mean_motion": 15.50628793,
        "meta_eccentricity": 0.0001247,
        "meta_inclination": 42.9992,
        "meta_ra_of_asc_node": 38.9354,
        "meta_arg_of_pericenter": 262.09,
        "meta_mean_anomaly": 97.9819,
        "meta_ephemeris_type": 0,
        "meta_classification_type": "U",
        "meta_norad_cat_id": 66323,
        "meta_element_set_no": 999,
        "meta_rev_at_epoch": 549,
        "meta_bstar": 0.0018357,
        "meta_mean_motion_dot": 0.00109054,
        "meta_mean_motion_ddot": 0,
        "tle_line1": "1 66323U 25253E   25337.46629944  .00109054  00000+0  18357-2 0  9995",
        "tle_line2": "2 66323  42.9992  38.9354 0001247 262.0900  97.9819 15.50628793  5499"
      },
      "geometry": {
        "type": "Point",
        "coordinates": [
          -58.42331509613119,
          -42.931056760317574
        ]
      }
    },
    {
      "type": "Feature",
      "properties": {
        "norad_id": 66324,
        "name": "STARLINK-35506",
        "group": "last-30-days",
        "lat": -42.29376497077382,
        "lon": -67.59772456747564,
        "alt_km": 417.17817515254137,
        "timestamp": "2025-12-04T03:47:53.334086+00:00",
        "meta_object_name": "STARLINK-35506",
        "meta_object_id": "2025-253F",
        "meta_epoch": "2025-12-02T21:18:38.393568",
        "meta_mean_motion": 15.50722844,
        "meta_eccentricity": 0.00011072,
        "meta_inclination": 42.9991,
        "meta_ra_of_asc_node": 42.3374,
        "meta_arg_of_pericenter": 339.0363,
        "meta_mean_anomaly": 21.0451,
        "meta_ephemeris_type": 0,
        "meta_classification_type": "U",
        "meta_norad_cat_id": 66324,
        "meta_element_set_no": 999,
        "meta_rev_at_epoch": 540,
        "meta_bstar": 0.0016172001,
        "meta_mean_motion_dot": 0.00096197,
        "meta_mean_motion_ddot": 0,
        "tle_line1": "1 66324U 25253F   25336.88794437  .00096197  00000+0  16172-2 0  9997",
        "tle_line2": "2 66324  42.9991  42.3374 0001107 339.0363  21.0451 15.50722844  5406"
      },
      "geometry": {
        "type": "Point",
        "coordinates": [
          -67.59772456747564,
          -42.29376497077382
        ]
      }
    },
    {
      "type": "Feature",
      "properties": {
        "norad_id": 66325,
        "name": "STARLINK-35504",
        "group": "last-30-days",
        "lat": -20.25066253869774,
        "lon": -121.64932203857425,
        "alt_km": 449.1611301602534,
        "timestamp": "2025-12-04T03:47:53.334097+00:00",
        "meta_object_name": "STARLINK-35504",
        "meta_object_id": "2025-253G",
        "meta_epoch": "2025-12-03T12:00:02.998944",
        "meta_mean_motion": 15.41791328,
        "meta_eccentricity": 0.0001655,
        "meta_inclination": 43.0004,
        "meta_ra_of_asc_node": 38.822,
        "meta_arg_of_pericenter": 297.9733,
        "meta_mean_anomaly": 217.2756,
        "meta_ephemeris_type": 0,
        "meta_classification_type": "U",
        "meta_norad_cat_id": 66325,
        "meta_element_set_no": 999,
        "meta_rev_at_epoch": 544,
        "meta_bstar": -0.038739,
        "meta_mean_motion_dot": -0.01514849,
        "meta_mean_motion_ddot": 0,
        "tle_line1": "1 66325U 25253G   25337.50003471 -.01514849  00000+0 -38739-1 0  9993",
        "tle_line2": "2 66325  43.0004  38.8220 0001655 297.9733 217.2756 15.41791328  5449"
      },
      "geometry": {
        "type": "Point",
        "coordinates": [
          -121.64932203857425,
          -20.25066253869774
        ]
      }
    },
    {
      "type": "Feature",
      "properties": {
        "norad_id": 66326,
        "name": "STARLINK-35479",
        "group": "last-30-days",
        "lat": -42.97834920490513,
        "lon": -55.949300001111936,
        "alt_km": 416.89470036091916,
        "timestamp": "2025-12-04T03:47:53.334110+00:00",
        "meta_object_name": "STARLINK-35479",
        "meta_object_id": "2025-253H",
        "meta_epoch": "2025-12-03T11:10:58.631232",
        "meta_mean_motion": 15.50603892,
        "meta_eccentricity": 0.00016,
        "meta_inclination": 43.0018,
        "meta_ra_of_asc_node": 38.9323,
        "meta_arg_of_pericenter": 272.6814,
        "meta_mean_anomaly": 87.3864,
        "meta_ephemeris_type": 0,
        "meta_classification_type": "U",
        "meta_norad_cat_id": 66326,
        "meta_element_set_no": 999,
        "meta_rev_at_epoch": 549,
        "meta_bstar": 0.00154,
        "meta_mean_motion_dot": 0.00091145,
        "meta_mean_motion_ddot": 0,
        "tle_line1": "1 66326U 25253H   25337.46595638  .00091145  00000+0  15400-2 0  9997",
        "tle_line2": "2 66326  43.0018  38.9323 0001600 272.6814  87.3864 15.50603892  5499"
      },
      "geometry": {
        "type": "Point",
        "coordinates": [
          -55.949300001111936,
          -42.97834920490513
        ]
      }
    },
    {
      "type": "Feature",
      "properties": {
        "norad_id": 66327,
        "name": "STARLINK-35507",
        "group": "last-30-days",
        "lat": -41.72803837960012,
        "lon": -71.94011116281595,
        "alt_km": 417.8848527322252,
        "timestamp": "2025-12-04T03:47:53.334124+00:00",
        "meta_object_name": "STARLINK-35507",
        "meta_object_id": "2025-253J",
        "meta_epoch": "2025-12-03T08:00:01.999008",
        "meta_mean_motion": 15.50641745,
        "meta_eccentricity": 0.0001472,
        "meta_inclination": 43.0006,
        "meta_ra_of_asc_node": 39.7386,
        "meta_arg_of_pericenter": 263.2374,
        "meta_mean_anomaly": 64.2491,
        "meta_ephemeris_type": 0,
        "meta_classification_type": "U",
        "meta_norad_cat_id": 66327,
        "meta_element_set_no": 999,
        "meta_rev_at_epoch": 551,
        "meta_bstar": -0.002531,
        "meta_mean_motion_dot": -0.00146406,
        "meta_mean_motion_ddot": 0,
        "tle_line1": "1 66327U 25253J   25337.33335647 -.00146406  00000+0 -25310-2 0  9990",
        "tle_line2": "2 66327  43.0006  39.7386 0001472 263.2374  64.2491 15.50641745  5511"
      },
      "geometry": {
        "type": "Point",
        "coordinates": [
          -71.94011116281595,
          -41.72803837960012
        ]
      }
    },
    {
      "type": "Feature",
      "properties": {
        "norad_id": 66328,
        "name": "STARLINK-35460",
        "group": "last-30-days",
        "lat": -42.453845580467934,
        "lon": -44.21617624180127,
        "alt_km": 411.3956821841575,
        "timestamp": "2025-12-04T03:47:53.334135+00:00",
        "meta_object_name": "STARLINK-35460",
        "meta_object_id": "2025-253K",
        "meta_epoch": "2025-12-03T04:58:05.880864",
        "meta_mean_motion": 15.5097752,
        "meta_eccentricity": 0.0008271,
        "meta_inclination": 42.9967,
        "meta_ra_of_asc_node": 40.4277,
        "meta_arg_of_pericenter": 250.2272,
        "meta_mean_anomaly": 109.7696,
        "meta_ephemeris_type": 0,
        "meta_classification_type": "U",
        "meta_norad_cat_id": 66328,
        "meta_element_set_no": 999,
        "meta_rev_at_epoch": 545,
        "meta_bstar": 0.0018701,
        "meta_mean_motion_dot": 0.00112679,
        "meta_mean_motion_ddot": 0,
        "tle_line1": "1 66328U 25253K   25337.20701251  .00112679  00000+0  18701-2 0  9994",
        "tle_line2": "2 66328  42.9967  40.4277 0008271 250.2272 109.7696 15.50977520  5459"
      },
      "geometry": {
        "type": "Point",
        "coordinates": [
          -44.21617624180127,
          -42.453845580467934
        ]
      }
    },
    {
      "type": "Feature",
      "properties": {
        "norad_id": 66329,
        "name": "STARLINK-35505",
        "group": "last-30-days",
        "lat": -41.38586712842081,
        "lon": -74.06767744184411,
        "alt_km": 417.3301588109907,
        "timestamp": "2025-12-04T03:47:53.334146+00:00",
        "meta_object_name": "STARLINK-35505",
        "meta_object_id": "2025-253L",
        "meta_epoch": "2025-12-03T11:14:26.007648",
        "meta_mean_motion": 15.50594254,
        "meta_eccentricity": 0.0001287,
        "meta_inclination": 43.0004,
        "meta_ra_of_asc_node": 38.9522,
        "meta_arg_of_pericenter": 266.7916,
        "meta_mean_anomaly": 93.2797,
        "meta_ephemeris_type": 0,
        "meta_classification_type": "U",
        "meta_norad_cat_id": 66329,
        "meta_element_set_no": 999,
        "meta_rev_at_epoch": 549,
        "meta_bstar": 0.00052115,
        "meta_mean_motion_dot": 0.00030366,
        "meta_mean_motion_ddot": 0,
        "tle_line1": "1 66329U 25253L   25337.46835657  .00030366  00000+0  52115-3 0  9991",
        "tle_line2": "2 66329  43.0004  38.9522 0001287 266.7916  93.2797 15.50594254  5498"
      },
      "geometry": {
        "type": "Point",
        "coordinates": [
          -74.06767744184411,
          -41.38586712842081
        ]
      }
    }
  ]
}